#aV2015  6  4  0  0  0.00000000     288 DD+AD WGS84 FIT  NGA
## 1847 345600.00000000   300.00000000 57177 0.0000000000000
+   31     1  2  3  4  5  6  7  9 10 11 12 13 14 15 16 17 18
+         19 20 21 22 23 24 25 26 27 28 29 30 31 32  0  0  0
+          0  0  0  0  0  0  0  0  0  0  0  0  0  0  0  0  0
+          0  0  0  0  0  0  0  0  0  0  0  0  0  0  0  0  0
+          0  0  0  0  0  0  0  0  0  0  0  0  0  0  0  0  0
++         2  2  2  2  2  2  2  2  2  2  2  2  2  2  2  2  2
++         2  2  2  2  2  2  2  2  2  2  2  2  2  2  0  0  0
++         0  0  0  0  0  0  0  0  0  0  0  0  0  0  0  0  0
++         0  0  0  0  0  0  0  0  0  0  0  0  0  0  0  0  0
++         0  0  0  0  0  0  0  0  0  0  0  0  0  0  0  0  0
%c cc cc ccc ccc cccc cccc cccc cccc ccccc ccccc ccccc ccccc
%c cc cc ccc ccc cccc cccc cccc cccc ccccc ccccc ccccc ccccc
%f  0.0000000  0.000000000  0.00000000000  0.000000000000000
%f  0.0000000  0.000000000  0.00000000000  0.000000000000000
%i    0    0    0    0      0      0      0      0         0
%i    0    0    0    0      0      0      0      0         0
/*      NGA, ST. LOUIS,MO.                                  
/*   EPHEMERIS COMPUTED FROM  1 DAYS OF DATA                
/*   EPOCHA SMOOTHER                                       
/* CCCCCCCCCCCCCCCCCCCCCCCCCCCCCCCCCCCCCCCCCCCCCCCCCCCCCCCCC
*  2015  6  4  7 40  0.00000000
P  1 -13327.029187  22784.528975  -1820.249612     -4.726053                    
V  1  -3694.455412    293.002705  31797.402755      0.004918                    
P  2  18788.330291  -8502.604520 -16113.627087    569.968334                    
V  2  -8730.125383  19706.179397 -20563.188428      0.023408                    
P  3 -10953.097330  13555.742966 -20038.071263    343.037288                    
V  3 -25392.122112  -2310.972185  12270.655634      0.081390                    
P  4 -17391.021823  18550.601845   6855.581299    -17.578114                    
V  4   1812.899879  -9724.633316  29785.099240     -0.017696                    
P  5  25693.070415  -3419.619742   6179.310503   -233.511521                    
V  5   7758.077188   3318.819646 -29993.425641      0.045319                    
P  6  13689.945443   6728.230281 -21741.880239    176.565398                    
V  6 -14717.048382  23357.109281  -2045.067916      0.088728                    
P  7  -2706.082630  21873.958626  14644.903045    466.513766                    
V  7 -12141.689744  14179.102815 -23952.043662      0.024049                    
P  9   5423.217991  24331.665749  -9151.097655   -166.015222                    
V  9  -7726.755219  -9074.742633 -28749.373991     -0.050932                    
P 10  21830.167088  10069.303889 -12132.700237   -177.576453                    
V 10 -14807.448327   1623.567566 -25717.248640     -0.015175                    
P 11 -10799.992736  23106.919520   6645.352721   -582.714929                    
V 11  -2659.381389 -10095.825037  28641.884669     -0.025054                    
P 12  14105.156061 -11457.982022 -19389.303016    298.565038                    
V 12  24202.454540   3313.599633  15942.608990      0.031893                    
P 13  15206.622054  -1248.554489  21586.003057   -120.333842                    
V 13   9477.612985  26052.328657  -5254.264684     -0.033941                    
P 14 -14890.914795 -20319.162448  -8416.301714     58.566326                    
V 14  -2104.903805 -11022.168330  29333.029357     -0.027979                    
P 15   9825.535247 -13412.660748  20564.036356   -253.021516                    
V 15  14212.980135  22375.948889   8087.821154     -0.021427                    
P 16 -26026.443406   1039.161203   6049.156903   -122.429111                    
V 16  -7463.908099  -2377.062392 -30933.151652      0.038527                    
P 17  15345.296990  20124.822856  -8109.119292   -174.327697                    
V 17   2483.157379  10559.153793  29622.640369     -0.017240                    
P 18 -10109.050971 -15245.492313  19847.405514    406.667750                    
V 18  24210.735913   -619.958174  11865.135896      0.029727                    
P 19 -11856.314231   9815.767069  21393.482436   -512.391870                    
V 19 -10951.442387 -25414.600730   5997.423528     -0.010971                    
P 20  20982.693301 -10105.303902  12724.240200    326.358045                    
V 20  16531.493071   2678.017419 -24698.430146      0.035978                    
P 21   -796.732758 -21424.347344  16152.203053   -452.199009                    
V 21  12345.598772 -15250.693531 -20885.699589     -0.034410                    
P 22 -21158.461674 -10261.295194  12751.888597    357.423969                    
V 22  15929.363133  -2578.293966  24638.736453      0.040479                    
P 23  -3579.128139  19775.327135 -16987.319409   -112.649891                    
V 23 -12047.102736 -18630.815867 -19417.456069     -0.024274                    
P 24  14607.984017 -22055.461327   1131.145307    -49.370456                    
V 24   1920.072087   2940.308029  31642.075375     -0.006342                    
P 25   -108.203127 -14899.380076 -22089.979164    -36.121863                    
V 25  27719.479467   1328.128041   -875.130209     -0.040373                    
P 26 -25823.008248  -4311.889887  -4498.463035     30.512614                    
V 26   5819.289505  -2517.069442 -31052.567791     -0.007720                    
P 27 -16670.708616  -1250.124750  20648.171031     76.720969                    
V 27 -11371.575379 -23627.230600 -10487.334017      0.027182                    
P 28  16987.479067  12935.908294  16471.398193    444.451542                    
V 28 -19663.362607  -1256.306997  22022.120176      0.026571                    
P 29  -2877.928225 -24157.239251 -10697.880158    614.577762                    
V 29   7452.746201  11538.873080 -27955.200997      0.022565                    
P 30   6324.066358  15652.073229  20478.212394    -49.480040                    
V 30 -16475.694227  20218.874623 -10426.161771      0.061596                    
P 31 -15539.134115  -2870.271140 -21276.876005    313.967791                    
V 31  15083.601071 -22648.978457  -7583.237307     -0.011547                    
P 32 -22558.983064   5928.459063 -12203.166729   -134.175536                    
V 32 -15171.768175  -5079.422404  26156.317678      0.096744                    
EOF
